OBJECT_NAME,OBJECT_ID,EPOCH,MEAN_MOTION,ECCENTRICITY,INCLINATION,RA_OF_ASC_NODE,ARG_OF_PERICENTER,MEAN_ANOMALY,EPHEMERIS_TYPE,CLASSIFICATION_TYPE,NORAD_CAT_ID,ELEMENT_SET_NO,REV_AT_EPOCH,BSTAR,MEAN_MOTION_DOT,MEAN_MOTION_DDOT
STARLINK-35318,2025-240A,2026-07-06T02:15:52.441344,15.34387208,.00020771,53.1568,230.9367,91.2238,268.9002,0,U,66146,999,4019,.37666437E-3,.12366E-3,0
STARLINK-33948,2025-240B,2026-07-05T20:46:49.652544,15.34410371,.00014893,53.1589,233.7635,112.6704,247.4456,0,U,66147,999,4013,.368689E-3,.12105E-3,0
STARLINK-35081,2025-240C,2026-07-06T03:43:36.730272,15.34388367,.00013407,53.1575,230.5930,115.1387,244.9755,0,U,66148,999,4015,.46870565E-3,.15487E-3,0
STARLINK-35601,2025-240D,2026-07-06T06:00:04.000320,15.34399623,.00010918,53.1607,231.9480,98.0814,236.9311,0,U,66149,999,587,-.38052906E-3,-.1321E-3,0
STARLINK-35605,2025-240E,2026-07-06T02:40:49.060416,15.34375616,.00027554,53.1593,232.4564,83.3918,276.7398,0,U,66150,999,4012,.76828175E-3,.25651E-3,0
STARLINK-35540,2025-240F,2026-07-06T03:28:27.878304,15.34374637,.00016413,53.1577,230.5333,112.5085,247.6092,0,U,66151,999,4015,.44653271E-3,.14728E-3,0
STARLINK-35455,2025-240G,2026-07-06T03:34:31.336320,15.34359274,.00011787,53.1568,230.5651,75.7553,284.3581,0,U,66152,999,4015,-.17995783E-3,-.6443E-4,0
STARLINK-34752,2025-240H,2026-07-05T09:28:20.639712,15.34411706,.00014523,53.1585,234.3860,60.9367,299.1781,0,U,66153,999,4003,.58688489E-3,.19512E-3,0
STARLINK-34625,2025-240J,2026-07-06T06:00:04.000320,15.33553370,.00015054,53.1597,232.1660,93.7722,129.1438,0,U,66154,999,525,-.21667804E-3,-.7493E-4,0
STARLINK-35580,2025-240K,2026-07-06T03:04:13.507968,15.34387847,.00009839,53.1581,230.4312,92.6487,267.4628,0,U,66155,999,4015,.65853025E-3,.2193E-3,0
STARLINK-35621,2025-240L,2026-07-05T20:37:44.826240,15.34387906,.00019806,53.1588,233.7240,82.8831,277.2396,0,U,66156,999,4008,.19880823E-3,.6344E-4,0
STARLINK-35594,2025-240M,2026-07-05T20:12:47.928096,15.34399448,.00014981,53.1583,232.1972,100.3395,259.7777,0,U,66157,999,4010,.41978745E-3,.13833E-3,0
STARLINK-35587,2025-240N,2026-07-05T13:23:35.051712,15.30222767,.0000935,53.1571,235.3986,69.4989,290.6112,0,U,66158,999,4003,.99523E-3,.29254E-3,0
STARLINK-35586,2025-240P,2026-07-05T20:43:06.010464,15.34410238,.000124,53.1570,232.3281,94.3879,265.7266,0,U,66159,999,4010,.7374016E-3,.24628E-3,0
STARLINK-35636,2025-240Q,2026-07-06T02:43:50.710368,15.34379517,.00025458,53.1572,232.4699,91.0114,269.1181,0,U,66160,999,4012,.38705956E-3,.12715E-3,0
STARLINK-35635,2025-240R,2026-07-06T03:31:35.838048,15.30173040,.0000827,53.1573,232.6741,87.7703,272.3393,0,U,66161,999,4012,.34651153E-4,.667E-5,0
STARLINK-35633,2025-240S,2026-07-06T06:00:04.000320,15.33527341,.00010775,53.1599,231.9807,102.2414,207.9721,0,U,66162,999,581,.11374591E-3,.3367E-4,0
STARLINK-35607,2025-240T,2026-07-06T03:31:29.263008,15.34363752,.00011745,53.1569,230.5358,90.0482,270.0655,0,U,66163,999,4015,-.55691784E-4,-.2255E-4,0
STARLINK-35614,2025-240U,2026-07-05T10:43:59.411424,15.34368107,.00010858,53.1581,233.9908,98.3254,261.7872,0,U,66164,999,4004,.69920727E-3,.23297E-3,0
STARLINK-35575,2025-240V,2026-07-05T19:57:38.932704,15.34391094,.0001134,53.1571,232.1251,88.3292,271.7841,0,U,66165,999,4010,.84671443E-4,.2485E-4,0
STARLINK-35624,2025-240W,2026-07-06T03:19:22.975104,15.34371170,.00014493,53.1571,230.4820,80.6050,279.5117,0,U,66166,999,4015,.51432119E-3,.17025E-3,0
STARLINK-35641,2025-240X,2026-07-06T02:18:54.091296,15.34391963,.00029776,53.1560,230.9313,75.4490,284.6843,0,U,66167,999,4014,.43002259E-3,.14177E-3,0
STARLINK-35578,2025-240Y,2026-07-06T02:49:54.437088,15.34381761,.00030355,53.1596,232.4814,91.6238,268.5112,0,U,66168,999,4012,.4443475E-3,.14658E-3,0
STARLINK-35638,2025-240Z,2026-07-06T03:11:08.661696,15.34358533,.00015596,53.1581,232.5719,88.5247,271.5934,0,U,66169,999,4012,.6732361E-3,.22408E-3,0
STARLINK-35585,2025-240AA,2026-07-05T20:09:46.501056,15.34377314,.00016152,53.1576,232.1758,86.3933,273.7254,0,U,66170,999,4010,.13455877E-2,.45329E-3,0
STARLINK-35606,2025-240AB,2026-07-05T10:10:37.794720,15.34422829,.00011346,53.1575,233.8438,78.1452,281.9678,0,U,66171,999,4004,.68545635E-3,.2287E-3,0
STARLINK-35627,2025-240AC,2026-07-05T13:17:29.964192,15.30232448,.0000641,53.1581,235.3603,55.9453,304.1608,0,U,66172,999,4003,.77351E-3,.22643E-3,0
STARLINK-35634,2025-240AD,2026-07-06T03:40:34.836672,15.34355257,.00019327,53.1563,230.5738,76.9581,283.1637,0,U,66173,999,4015,.94075675E-3,.31498E-3,0
STARLINK-35363,2025-243B,2026-07-06T01:21:04.967136,15.34399158,.00011849,53.1577,54.9290,85.5003,274.6135,0,U,66178,999,3878,.20152342E-2,.68332E-3,0
STARLINK-35346,2025-243C,2026-07-06T00:53:49.124832,15.34409178,.00008433,53.1587,54.8128,84.6057,275.5042,0,U,66179,999,3878,.11946481E-2,.40215E-3,0
