[ {"name": "STARLINK-35318", "line1": "1 66146U 25240A   26187.09435696  .00012366  00000+0  37666-3 0  9990", "line2": "2 66146  53.1568 230.9367 0002077  91.2238 268.9002 15.34387208 40196"}, {"name": "STARLINK-33948", "line1": "1 66147U 25240B   26186.86585246  .00012105  00000+0  36869-3 0  9997", "line2": "2 66147  53.1589 233.7635 0001489 112.6704 247.4456 15.34410371 40138"}, {"name": "STARLINK-35081", "line1": "1 66148U 25240C   26187.15528623  .00015487  00000+0  46871-3 0  9997", "line2": "2 66148  53.1575 230.5930 0001340 115.1387 244.9755 15.34388367 40153"}, {"name": "STARLINK-35601", "line1": "1 66149U 25240D   26187.25004630 -.00013210  00000+0 -38053-3 0  9993", "line2": "2 66149  53.1607 231.9480 0001091  98.0814 236.9311 15.34399623  5878"}, {"name": "STARLINK-35605", "line1": "1 66150U 25240E   26187.11167894  .00025651  00000+0  76828-3 0  9994", "line2": "2 66150  53.1593 232.4564 0002755  83.3918 276.7398 15.34375616 40123"}, {"name": "STARLINK-35540", "line1": "1 66151U 25240F   26187.14476711  .00014728  00000+0  44653-3 0  9993", "line2": "2 66151  53.1577 230.5333 0001641 112.5085 247.6092 15.34374637 40155"}, {"name": "STARLINK-35455", "line1": "1 66152U 25240G   26187.14897380 -.00006443  00000+0 -17996-3 0  9990", "line2": "2 66152  53.1568 230.5651 0001178  75.7553 284.3581 15.34359274 40155"}, {"name": "STARLINK-34752", "line1": "1 66153U 25240H   26186.39468333  .00019512  00000+0  58688-3 0  9991", "line2": "2 66153  53.1585 234.3860 0001452  60.9367 299.1781 15.34411706 40035"}, {"name": "STARLINK-34625", "line1": "1 66154U 25240J   26187.25004630 -.00007493  00000+0 -21668-3 0  9999", "line2": "2 66154  53.1597 232.1660 0001505  93.7722 129.1438 15.33553370  5250"}, {"name": "STARLINK-35580", "line1": "1 66155U 25240K   26187.12793412  .00021930  00000+0  65853-3 0  9993", "line2": "2 66155  53.1581 230.4312 0000983  92.6487 267.4628 15.34387847 40154"}, {"name": "STARLINK-35621", "line1": "1 66156U 25240L   26186.85954660  .00006344  00000+0  19881-3 0  9999", "line2": "2 66156  53.1588 233.7240 0001980  82.8831 277.2396 15.34387906 40089"}, {"name": "STARLINK-35594", "line1": "1 66157U 25240M   26186.84222139  .00013833  00000+0  41979-3 0  9992", "line2": "2 66157  53.1583 232.1972 0001498 100.3395 259.7777 15.34399448 40100"}, {"name": "STARLINK-35587", "line1": "1 66158U 25240N   26186.55804458  .00029254  00000+0  99523-3 0  9993", "line2": "2 66158  53.1571 235.3986 0000935  69.4989 290.6112 15.30222767 40031"}, {"name": "STARLINK-35586", "line1": "1 66159U 25240P   26186.86326401  .00024628  00000+0  73740-3 0  9998", "line2": "2 66159  53.1570 232.3281 0001240  94.3879 265.7266 15.34410238 40108"}, {"name": "STARLINK-35636", "line1": "1 66160U 25240Q   26187.11378137  .00012715  00000+0  38706-3 0  9999", "line2": "2 66160  53.1572 232.4699 0002545  91.0114 269.1181 15.34379517 40121"}, {"name": "STARLINK-35635", "line1": "1 66161U 25240R   26187.14694257  .00000667  00000+0  34651-4 0  9996", "line2": "2 66161  53.1573 232.6741 0000827  87.7703 272.3393 15.30173040 40120"}, {"name": "STARLINK-35633", "line1": "1 66162U 25240S   26187.25004630  .00003367  00000+0  11375-3 0  9996", "line2": "2 66162  53.1599 231.9807 0001077 102.2414 207.9721 15.33527341  5810"}, {"name": "STARLINK-35607", "line1": "1 66163U 25240T   26187.14686647 -.00002255  00000+0 -55692-4 0  9997", "line2": "2 66163  53.1569 230.5358 0001174  90.0482 270.0655 15.34363752 40159"}, {"name": "STARLINK-35614", "line1": "1 66164U 25240U   26186.44721541  .00023297  00000+0  69921-3 0  9999", "line2": "2 66164  53.1581 233.9908 0001085  98.3254 261.7872 15.34368107 40046"}, {"name": "STARLINK-35575", "line1": "1 66165U 25240V   26186.83170061  .00002485  00000+0  84671-4 0  9994", "line2": "2 66165  53.1571 232.1251 0001134  88.3292 271.7841 15.34391094 40109"}, {"name": "STARLINK-35624", "line1": "1 66166U 25240W   26187.13846036  .00017025  00000+0  51432-3 0  9995", "line2": "2 66166  53.1571 230.4820 0001449  80.6050 279.5117 15.34371170 40159"}, {"name": "STARLINK-35641", "line1": "1 66167U 25240X   26187.09645939  .00014177  00000+0  43002-3 0  9999", "line2": "2 66167  53.1560 230.9313 0002977  75.4490 284.6843 15.34391963 40141"}, {"name": "STARLINK-35578", "line1": "1 66168U 25240Y   26187.11799117  .00014658  00000+0  44435-3 0  9996", "line2": "2 66168  53.1596 232.4814 0003035  91.6238 268.5112 15.34381761 40123"}, {"name": "STARLINK-35638", "line1": "1 66169U 25240Z   26187.13273914  .00022408  00000+0  67324-3 0  9995", "line2": "2 66169  53.1581 232.5719 0001559  88.5247 271.5934 15.34358533 40124"}, {"name": "STARLINK-35585", "line1": "1 66170U 25240AA  26186.84012154  .00045329  00000+0  13456-2 0  9994", "line2": "2 66170  53.1576 232.1758 0001615  86.3933 273.7254 15.34377314 40105"}, {"name": "STARLINK-35606", "line1": "1 66171U 25240AB  26186.42404855  .00022870  00000+0  68546-3 0  9999", "line2": "2 66171  53.1575 233.8438 0001134  78.1452 281.9678 15.34422829 40045"}, {"name": "STARLINK-35627", "line1": "1 66172U 25240AC  26186.55381903  .00022643  00000+0  77351-3 0  9994", "line2": "2 66172  53.1581 235.3603 0000641  55.9453 304.1608 15.30232448 40032"}, {"name": "STARLINK-35634", "line1": "1 66173U 25240AD  26187.15318098  .00031498  00000+0  94076-3 0  9998", "line2": "2 66173  53.1563 230.5738 0001932  76.9581 283.1637 15.34355257 40157"}, {"name": "STARLINK-35363", "line1": "1 66178U 25243B   26187.05630749  .00068332  00000+0  20152-2 0  9995", "line2": "2 66178  53.1577  54.9290 0001184  85.5003 274.6135 15.34399158 38784"}, {"name": "STARLINK-35346", "line1": "1 66179U 25243C   26187.03737413  .00040215  00000+0  11946-2 0  9991", "line2": "2 66179  53.1587  54.8128 0000843  84.6057 275.5042 15.34409178 38786"}]